<?xml version="1.0" encoding="UTF-8"?>
<ndm xmlns:xsi="http://www.w3.org/2001/XMLSchema-instance" xsi:noNamespaceSchemaLocation="https://sanaregistry.org/r/ndmxml_unqualified/ndmxml-2.0.0-master-2.0.xsd">
<omm id="CCSDS_OMM_VERS" version="2.0">
<header><CREATION_DATE/><ORIGINATOR/></header><body><segment><metadata><OBJECT_NAME>IRIDIUM 26</OBJECT_NAME><OBJECT_ID>1997-043A</OBJECT_ID><CENTER_NAME>EARTH</CENTER_NAME><REF_FRAME>TEME</REF_FRAME><TIME_SYSTEM>UTC</TIME_SYSTEM><MEAN_ELEMENT_THEORY>SGP4</MEAN_ELEMENT_THEORY></metadata><data><meanElements><EPOCH>2025-04-02T05:19:17.549760</EPOCH><MEAN_MOTION>14.37062056</MEAN_MOTION><ECCENTRICITY>.0002218</ECCENTRICITY><INCLINATION>86.3972</INCLINATION><RA_OF_ASC_NODE>142.5360</RA_OF_ASC_NODE><ARG_OF_PERICENTER>88.7142</ARG_OF_PERICENTER><MEAN_ANOMALY>271.4310</MEAN_ANOMALY></meanElements><tleParameters><EPHEMERIS_TYPE>0</EPHEMERIS_TYPE><CLASSIFICATION_TYPE>U</CLASSIFICATION_TYPE><NORAD_CAT_ID>24903</NORAD_CAT_ID><ELEMENT_SET_NO>999</ELEMENT_SET_NO><REV_AT_EPOCH>44630</REV_AT_EPOCH><BSTAR>.1664E-3</BSTAR><MEAN_MOTION_DOT>.513E-5</MEAN_MOTION_DOT><MEAN_MOTION_DDOT>0</MEAN_MOTION_DDOT></tleParameters></data></segment></body></omm>
<omm id="CCSDS_OMM_VERS" version="2.0">
<header><CREATION_DATE/><ORIGINATOR/></header><body><segment><metadata><OBJECT_NAME>IRIDIUM 22</OBJECT_NAME><OBJECT_ID>1997-043E</OBJECT_ID><CENTER_NAME>EARTH</CENTER_NAME><REF_FRAME>TEME</REF_FRAME><TIME_SYSTEM>UTC</TIME_SYSTEM><MEAN_ELEMENT_THEORY>SGP4</MEAN_ELEMENT_THEORY></metadata><data><meanElements><EPOCH>2025-04-01T21:07:11.868672</EPOCH><MEAN_MOTION>14.35885950</MEAN_MOTION><ECCENTRICITY>.0002231</ECCENTRICITY><INCLINATION>86.3984</INCLINATION><RA_OF_ASC_NODE>146.1495</RA_OF_ASC_NODE><ARG_OF_PERICENTER>94.1579</ARG_OF_PERICENTER><MEAN_ANOMALY>265.9873</MEAN_ANOMALY></meanElements><tleParameters><EPHEMERIS_TYPE>0</EPHEMERIS_TYPE><CLASSIFICATION_TYPE>U</CLASSIFICATION_TYPE><NORAD_CAT_ID>24907</NORAD_CAT_ID><ELEMENT_SET_NO>999</ELEMENT_SET_NO><REV_AT_EPOCH>44582</REV_AT_EPOCH><BSTAR>.18068E-3</BSTAR><MEAN_MOTION_DOT>.543E-5</MEAN_MOTION_DOT><MEAN_MOTION_DDOT>0</MEAN_MOTION_DDOT></tleParameters></data></segment></body></omm>
<omm id="CCSDS_OMM_VERS" version="2.0">
<header><CREATION_DATE/><ORIGINATOR/></header><body><segment><metadata><OBJECT_NAME>DUMMY MASS 1</OBJECT_NAME><OBJECT_ID>1997-048A</OBJECT_ID><CENTER_NAME>EARTH</CENTER_NAME><REF_FRAME>TEME</REF_FRAME><TIME_SYSTEM>UTC</TIME_SYSTEM><MEAN_ELEMENT_THEORY>SGP4</MEAN_ELEMENT_THEORY></metadata><data><meanElements><EPOCH>2025-04-01T16:47:15.117792</EPOCH><MEAN_MOTION>14.86901758</MEAN_MOTION><ECCENTRICITY>.0008743</ECCENTRICITY><INCLINATION>86.3408</INCLINATION><RA_OF_ASC_NODE>170.6767</RA_OF_ASC_NODE><ARG_OF_PERICENTER>66.5408</ARG_OF_PERICENTER><MEAN_ANOMALY>293.6735</MEAN_ANOMALY></meanElements><tleParameters><EPHEMERIS_TYPE>0</EPHEMERIS_TYPE><CLASSIFICATION_TYPE>U</CLASSIFICATION_TYPE><NORAD_CAT_ID>24925</NORAD_CAT_ID><ELEMENT_SET_NO>999</ELEMENT_SET_NO><REV_AT_EPOCH>49376</REV_AT_EPOCH><BSTAR>.85229E-4</BSTAR><MEAN_MOTION_DOT>.79E-5</MEAN_MOTION_DOT><MEAN_MOTION_DDOT>0</MEAN_MOTION_DDOT></tleParameters></data></segment></body></omm>
<omm id="CCSDS_OMM_VERS" version="2.0">
<header><CREATION_DATE/><ORIGINATOR/></header><body><segment><metadata><OBJECT_NAME>DUMMY MASS 2</OBJECT_NAME><OBJECT_ID>1997-048B</OBJECT_ID><CENTER_NAME>EARTH</CENTER_NAME><REF_FRAME>TEME</REF_FRAME><TIME_SYSTEM>UTC</TIME_SYSTEM><MEAN_ELEMENT_THEORY>SGP4</MEAN_ELEMENT_THEORY></metadata><data><meanElements><EPOCH>2025-04-01T17:11:21.461568</EPOCH><MEAN_MOTION>14.86654719</MEAN_MOTION><ECCENTRICITY>.0009686</ECCENTRICITY><INCLINATION>86.3409</INCLINATION><RA_OF_ASC_NODE>172.2601</RA_OF_ASC_NODE><ARG_OF_PERICENTER>74.6570</ARG_OF_PERICENTER><MEAN_ANOMALY>285.5724</MEAN_ANOMALY></meanElements><tleParameters><EPHEMERIS_TYPE>0</EPHEMERIS_TYPE><CLASSIFICATION_TYPE>U</CLASSIFICATION_TYPE><NORAD_CAT_ID>24926</NORAD_CAT_ID><ELEMENT_SET_NO>999</ELEMENT_SET_NO><REV_AT_EPOCH>49354</REV_AT_EPOCH><BSTAR>.86427E-4</BSTAR><MEAN_MOTION_DOT>.796E-5</MEAN_MOTION_DOT><MEAN_MOTION_DDOT>0</MEAN_MOTION_DDOT></tleParameters></data></segment></body></omm>
<omm id="CCSDS_OMM_VERS" version="2.0">
<header><CREATION_DATE/><ORIGINATOR/></header><body><segment><metadata><OBJECT_NAME>IRIDIUM 29</OBJECT_NAME><OBJECT_ID>1997-051A</OBJECT_ID><CENTER_NAME>EARTH</CENTER_NAME><REF_FRAME>TEME</REF_FRAME><TIME_SYSTEM>UTC</TIME_SYSTEM><MEAN_ELEMENT_THEORY>SGP4</MEAN_ELEMENT_THEORY></metadata><data><meanElements><EPOCH>2025-04-01T22:18:46.912896</EPOCH><MEAN_MOTION>14.36382396</MEAN_MOTION><ECCENTRICITY>.0002271</ECCENTRICITY><INCLINATION>86.4028</INCLINATION><RA_OF_ASC_NODE>175.8588</RA_OF_ASC_NODE><ARG_OF_PERICENTER>100.2113</ARG_OF_PERICENTER><MEAN_ANOMALY>259.9340</MEAN_ANOMALY></meanElements><tleParameters><EPHEMERIS_TYPE>0</EPHEMERIS_TYPE><CLASSIFICATION_TYPE>U</CLASSIFICATION_TYPE><NORAD_CAT_ID>24944</NORAD_CAT_ID><ELEMENT_SET_NO>999</ELEMENT_SET_NO><REV_AT_EPOCH>44232</REV_AT_EPOCH><BSTAR>.23316E-3</BSTAR><MEAN_MOTION_DOT>.702E-5</MEAN_MOTION_DOT><MEAN_MOTION_DDOT>0</MEAN_MOTION_DDOT></tleParameters></data></segment></body></omm>
<omm id="CCSDS_OMM_VERS" version="2.0">
<header><CREATION_DATE/><ORIGINATOR/></header><body><segment><metadata><OBJECT_NAME>IRIDIUM 33</OBJECT_NAME><OBJECT_ID>1997-051C</OBJECT_ID><CENTER_NAME>EARTH</CENTER_NAME><REF_FRAME>TEME</REF_FRAME><TIME_SYSTEM>UTC</TIME_SYSTEM><MEAN_ELEMENT_THEORY>SGP4</MEAN_ELEMENT_THEORY></metadata><data><meanElements><EPOCH>2025-04-01T18:12:31.614336</EPOCH><MEAN_MOTION>14.34834745</MEAN_MOTION><ECCENTRICITY>.0006745</ECCENTRICITY><INCLINATION>86.3944</INCLINATION><RA_OF_ASC_NODE>175.1850</RA_OF_ASC_NODE><ARG_OF_PERICENTER>343.1343</ARG_OF_PERICENTER><MEAN_ANOMALY>16.9628</MEAN_ANOMALY></meanElements><tleParameters><EPHEMERIS_TYPE>0</EPHEMERIS_TYPE><CLASSIFICATION_TYPE>U</CLASSIFICATION_TYPE><NORAD_CAT_ID>24946</NORAD_CAT_ID><ELEMENT_SET_NO>999</ELEMENT_SET_NO><REV_AT_EPOCH>44178</REV_AT_EPOCH><BSTAR>.16967E-3</BSTAR><MEAN_MOTION_DOT>.501E-5</MEAN_MOTION_DOT><MEAN_MOTION_DDOT>0</MEAN_MOTION_DDOT></tleParameters></data></segment></body></omm>
<omm id="CCSDS_OMM_VERS" version="2.0">
<header><CREATION_DATE/><ORIGINATOR/></header><body><segment><metadata><OBJECT_NAME>IRIDIUM 28</OBJECT_NAME><OBJECT_ID>1997-051E</OBJECT_ID><CENTER_NAME>EARTH</CENTER_NAME><REF_FRAME>TEME</REF_FRAME><TIME_SYSTEM>UTC</TIME_SYSTEM><MEAN_ELEMENT_THEORY>SGP4</MEAN_ELEMENT_THEORY></metadata><data><meanElements><EPOCH>2025-04-01T17:50:47.708736</EPOCH><MEAN_MOTION>14.37311865</MEAN_MOTION><ECCENTRICITY>.000202</ECCENTRICITY><INCLINATION>86.4031</INCLINATION><RA_OF_ASC_NODE>173.4992</RA_OF_ASC_NODE><ARG_OF_PERICENTER>83.7926</ARG_OF_PERICENTER><MEAN_ANOMALY>276.3502</MEAN_ANOMALY></meanElements><tleParameters><EPHEMERIS_TYPE>0</EPHEMERIS_TYPE><CLASSIFICATION_TYPE>U</CLASSIFICATION_TYPE><NORAD_CAT_ID>24948</NORAD_CAT_ID><ELEMENT_SET_NO>999</ELEMENT_SET_NO><REV_AT_EPOCH>44286</REV_AT_EPOCH><BSTAR>.22526E-3</BSTAR><MEAN_MOTION_DOT>.691E-5</MEAN_MOTION_DOT><MEAN_MOTION_DDOT>0</MEAN_MOTION_DDOT></tleParameters></data></segment></body></omm>
<omm id="CCSDS_OMM_VERS" version="2.0">
<header><CREATION_DATE/><ORIGINATOR/></header><body><segment><metadata><OBJECT_NAME>IRIDIUM 36</OBJECT_NAME><OBJECT_ID>1997-056C</OBJECT_ID><CENTER_NAME>EARTH</CENTER_NAME><REF_FRAME>TEME</REF_FRAME><TIME_SYSTEM>UTC</TIME_SYSTEM><MEAN_ELEMENT_THEORY>SGP4</MEAN_ELEMENT_THEORY></metadata><data><meanElements><EPOCH>2025-04-01T20:35:14.086752</EPOCH><MEAN_MOTION>14.37521164</MEAN_MOTION><ECCENTRICITY>.0001831</ECCENTRICITY><INCLINATION>86.4026</INCLINATION><RA_OF_ASC_NODE>205.0224</RA_OF_ASC_NODE><ARG_OF_PERICENTER>95.9085</ARG_OF_PERICENTER><MEAN_ANOMALY>264.2322</MEAN_ANOMALY></meanElements><tleParameters><EPHEMERIS_TYPE>0</EPHEMERIS_TYPE><CLASSIFICATION_TYPE>U</CLASSIFICATION_TYPE><NORAD_CAT_ID>24967</NORAD_CAT_ID><ELEMENT_SET_NO>999</ELEMENT_SET_NO><REV_AT_EPOCH>44125</REV_AT_EPOCH><BSTAR>.29045E-3</BSTAR><MEAN_MOTION_DOT>.889E-5</MEAN_MOTION_DOT><MEAN_MOTION_DDOT>0</MEAN_MOTION_DDOT></tleParameters></data></segment></body></omm>

</ndm>
