IRIDIUM 26              
1 24903U 97043A   25092.22173090  .00000513  00000+0  16640-3 0  9991
2 24903  86.3972 142.5360 0002218  88.7142 271.4310 14.37062056446308
IRIDIUM 22              
1 24907U 97043E   25091.87999848  .00000543  00000+0  18068-3 0  9991
2 24907  86.3984 146.1495 0002231  94.1579 265.9873 14.35885950445826
DUMMY MASS 1            
1 24925U 97048A   25091.69948053  .00000790  00000+0  85229-4 0  9996
2 24925  86.3408 170.6767 0008743  66.5408 293.6735 14.86901758493761
DUMMY MASS 2            
1 24926U 97048B   25091.71622062  .00000796  00000+0  86427-4 0  9996
2 24926  86.3409 172.2601 0009686  74.6570 285.5724 14.86654719493541
IRIDIUM 29              
1 24944U 97051A   25091.92970964  .00000702  00000+0  23316-3 0  9994
2 24944  86.4028 175.8588 0002271 100.2113 259.9340 14.36382396442327
IRIDIUM 33              
1 24946U 97051C   25091.75869924  .00000501  00000+0  16967-3 0  9991
2 24946  86.3944 175.1850 0006745 343.1343  16.9628 14.34834745441780
IRIDIUM 28              
1 24948U 97051E   25091.74360774  .00000691  00000+0  22526-3 0  9999
2 24948  86.4031 173.4992 0002020  83.7926 276.3502 14.37311865442863
IRIDIUM 36              
1 24967U 97056C   25091.85780193  .00000889  00000+0  29045-3 0  9990
2 24967  86.4026 205.0224 0001831  95.9085 264.2322 14.37521164441251
